HST                     
1 20580U 90037B   24294.22770127  .00022320  00000+0  98572-3 0  9995
2 20580  28.4683 225.9332 0002749 322.8026  37.2376 15.20375566696064
